GLOBALSTAR M094         
1 39074U 13005C   25339.84779505 -.00000093  00000+0  58817-4 0  9994
2 39074  51.9981  19.4607 0000115 140.9321 219.1554 12.62265064594056
GLOBALSTAR M096         
1 39075U 13005D   25339.54413655 -.00000103  00000+0  36655-5 0  9992
2 39075  52.0086  69.0317 0000476 138.8692 221.2210 12.62269101592935
GLOBALSTAR M078         
1 39076U 13005E   25339.75573314 -.00000110  00000+0 -33708-4 0  9999
2 39076  51.9842 152.6679 0001117 146.5278 213.5660 12.62272372591580
GLOBALSTAR M095         
1 39077U 13005F   25339.78192783 -.00000100  00000+0  20903-4 0  9991
2 39077  52.0053 149.9169 0000747 118.5827 241.5115 12.62267275591444
GLOBALSTAR M087         
1 52888U 22064A   25339.55736857 -.00000085  00000+0  10519-3 0  9995
2 52888  52.0009 291.9490 0000368  37.7173 322.3720 12.62260915166688
